{"type": "FeatureCollection", "features": [ {"type": "Feature", "properties": {"norad_id": 44476, "name": "INTELSAT 39 (IS-39)", "group": "intelsat", "lat": -0.028960732284642545, "lon": -31.569182290009756, "alt_km": 35791.50812761383, "timestamp": "2025-12-24T11:32:59.672080+00:00", "meta": {"OBJECT_NAME": "INTELSAT 39 (IS-39)", "OBJECT_ID": "2019-049B", "EPOCH": "2025-12-24T02:18:38.732832", "MEAN_MOTION": 1.00269108, "ECCENTRICITY": 0.0001115, "INCLINATION": 0.0206, "RA_OF_ASC_NODE": 10.2624, "ARG_OF_PERICENTER": 137.5965, "MEAN_ANOMALY": 41.6155, "EPHEMERIS_TYPE": 0, "CLASSIFICATION_TYPE": "U", "NORAD_CAT_ID": 44476, "ELEMENT_SET_NO": 999, "REV_AT_EPOCH": 2337, "BSTAR": 0, "MEAN_MOTION_DOT": 0, "MEAN_MOTION_DDOT": 0}, "tle": {"line1": "1 44476U 19049B   25358.09628163  .00000000  00000+0  00000+0 0  9994", "line2": "2 44476   0.0206  10.2624 0001115 137.5965  41.6155  1.00269108 23378"}}, "geometry": {"type": "Point", "coordinates": [-31.569182290009756, -0.028960732284642545]}}, {"type": "Feature", "properties": {"norad_id": 46114, "name": "GALAXY 30 (G-30)", "group": "intelsat", "lat": 0.00802779899201762, "lon": 141.47440470598792, "alt_km": 35792.10253640684, "timestamp": "2025-12-24T11:32:59.672093+00:00", "meta": {"OBJECT_NAME": "GALAXY 30 (G-30)", "OBJECT_ID": "2020-056C", "EPOCH": "2025-12-23T22:48:33.829920", "MEAN_MOTION": 1.00270256, "ECCENTRICITY": 0.0002119, "INCLINATION": 0.0109, "RA_OF_ASC_NODE": 314.0178, "ARG_OF_PERICENTER": 316.2367, "MEAN_ANOMALY": 39.6172, "EPHEMERIS_TYPE": 0, "CLASSIFICATION_TYPE": "U", "NORAD_CAT_ID": 46114, "ELEMENT_SET_NO": 999, "REV_AT_EPOCH": 1953, "BSTAR": 0, "MEAN_MOTION_DOT": 5.8e-07, "MEAN_MOTION_DDOT": 0}, "tle": {"line1": "1 46114U 20056C   25357.95039155  .00000058  00000+0  00000+0 0  9999", "line2": "2 46114   0.0109 314.0178 0002119 316.2367  39.6172  1.00270256 19532"}}, "geometry": {"type": "Point", "coordinates": [141.47440470598792, 0.00802779899201762]}}, {"type": "Feature", "properties": {"norad_id": 54026, "name": "GALAXY 33 (G-33)", "group": "intelsat", "lat": 0.012050022012989187, "lon": 133.48949557769555, "alt_km": 35790.606746257065, "timestamp": "2025-12-24T11:32:59.672105+00:00", "meta": {"OBJECT_NAME": "GALAXY 33 (G-33)", "OBJECT_ID": "2022-128A", "EPOCH": "2025-12-24T03:13:32.364768", "MEAN_MOTION": 1.00272108, "ECCENTRICITY": 0.0001641, "INCLINATION": 0.013, "RA_OF_ASC_NODE": 316.3631, "ARG_OF_PERICENTER": 308.9961, "MEAN_ANOMALY": 102.9447, "EPHEMERIS_TYPE": 0, "CLASSIFICATION_TYPE": "U", "NORAD_CAT_ID": 54026, "ELEMENT_SET_NO": 999, "REV_AT_EPOCH": 1198, "BSTAR": 0, "MEAN_MOTION_DOT": 1e-06, "MEAN_MOTION_DDOT": 0}, "tle": {"line1": "1 54026U 22128A   25358.13440237  .00000100  00000+0  00000+0 0  9998", "line2": "2 54026   0.0130 316.3631 0001641 308.9961 102.9447  1.00272108 11981"}}, "geometry": {"type": "Point", "coordinates": [133.48949557769555, 0.012050022012989187]}}, {"type": "Feature", "properties": {"norad_id": 54027, "name": "GALAXY 34 (G-34)", "group": "intelsat", "lat": 0.02937890914800575, "lon": 137.52176005897417, "alt_km": 35791.43291471539, "timestamp": "2025-12-24T11:32:59.672118+00:00", "meta": {"OBJECT_NAME": "GALAXY 34 (G-34)", "OBJECT_ID": "2022-128B", "EPOCH": "2025-12-24T02:45:16.364736", "MEAN_MOTION": 1.00269678, "ECCENTRICITY": 0.0001858, "INCLINATION": 0.0225, "RA_OF_ASC_NODE": 353.8473, "ARG_OF_PERICENTER": 271.0945, "MEAN_ANOMALY": 100.3145, "EPHEMERIS_TYPE": 0, "CLASSIFICATION_TYPE": "U", "NORAD_CAT_ID": 54027, "ELEMENT_SET_NO": 999, "REV_AT_EPOCH": 1215, "BSTAR": 0, "MEAN_MOTION_DOT": 0, "MEAN_MOTION_DDOT": 0}, "tle": {"line1": "1 54027U 22128B   25358.11477274  .00000000  00000+0  00000+0 0  9997", "line2": "2 54027   0.0225 353.8473 0001858 271.0945 100.3145  1.00269678 12154"}}, "geometry": {"type": "Point", "coordinates": [137.52176005897417, 0.02937890914800575]}}, {"type": "Feature", "properties": {"norad_id": 54243, "name": "GALAXY 31 (G-31)", "group": "intelsat", "lat": 0.002018624014328346, "lon": 145.48148249502168, "alt_km": 35790.6956863324, "timestamp": "2025-12-24T11:32:59.672130+00:00", "meta": {"OBJECT_NAME": "GALAXY 31 (G-31)", "OBJECT_ID": "2022-153A", "EPOCH": "2025-12-23T15:58:50.418048", "MEAN_MOTION": 1.00271329, "ECCENTRICITY": 0.00014745, "INCLINATION": 0.0283, "RA_OF_ASC_NODE": 245.972, "ARG_OF_PERICENTER": 36.0828, "MEAN_ANOMALY": 289.1035, "EPHEMERIS_TYPE": 0, "CLASSIFICATION_TYPE": "U", "NORAD_CAT_ID": 54243, "ELEMENT_SET_NO": 999, "REV_AT_EPOCH": 537, "BSTAR": 0, "MEAN_MOTION_DOT": 3.4e-07, "MEAN_MOTION_DDOT": 0}, "tle": {"line1": "1 54243U 22153A   25357.66586132  .00000034  00000+0  00000+0 0  9995", "line2": "2 54243   0.0283 245.9720 0001474  36.0828 289.1035  1.00271329  5373"}}, "geometry": {"type": "Point", "coordinates": [145.48148249502168, 0.002018624014328346]}}, {"type": "Feature", "properties": {"norad_id": 54244, "name": "GALAXY 32 (G-32)", "group": "intelsat", "lat": 0.010432474020834874, "lon": 175.48261876868284, "alt_km": 35792.18810062895, "timestamp": "2025-12-24T11:32:59.672142+00:00", "meta": {"OBJECT_NAME": "GALAXY 32 (G-32)", "OBJECT_ID": "2022-153B", "EPOCH": "2025-12-24T00:35:10.536864", "MEAN_MOTION": 1.00272312, "ECCENTRICITY": 0.0001904, "INCLINATION": 0.0096, "RA_OF_ASC_NODE": 16.5696, "ARG_OF_PERICENTER": 300.0291, "MEAN_ANOMALY": 53.9983, "EPHEMERIS_TYPE": 0, "CLASSIFICATION_TYPE": "U", "NORAD_CAT_ID": 54244, "ELEMENT_SET_NO": 999, "REV_AT_EPOCH": 1138, "BSTAR": 0, "MEAN_MOTION_DOT": -1.53e-06, "MEAN_MOTION_DDOT": 0}, "tle": {"line1": "1 54244U 22153B   25358.02442751 -.00000153  00000+0  00000+0 0  9998", "line2": "2 54244   0.0096  16.5696 0001904 300.0291  53.9983  1.00272312 11386"}}, "geometry": {"type": "Point", "coordinates": [175.48261876868284, 0.010432474020834874]}}, {"type": "Feature", "properties": {"norad_id": 54741, "name": "GALAXY 35 (G-35)", "group": "intelsat", "lat": -0.0085647003711085, "lon": 173.37860129939557, "alt_km": 35788.10215288461, "timestamp": "2025-12-24T11:32:59.672154+00:00", "meta": {"OBJECT_NAME": "GALAXY 35 (G-35)", "OBJECT_ID": "2022-170A", "EPOCH": "2025-12-23T19:32:14.656128", "MEAN_MOTION": 1.00270866, "ECCENTRICITY": 0.0002253, "INCLINATION": 0.0311, "RA_OF_ASC_NODE": 247.4334, "ARG_OF_PERICENTER": 26.3801, "MEAN_ANOMALY": 18.7541, "EPHEMERIS_TYPE": 0, "CLASSIFICATION_TYPE": "U", "NORAD_CAT_ID": 54741, "ELEMENT_SET_NO": 999, "REV_AT_EPOCH": 1113, "BSTAR": 0, "MEAN_MOTION_DOT": -1.41e-06, "MEAN_MOTION_DDOT": 0}, "tle": {"line1": "1 54741U 22170A   25357.81405852 -.00000141  00000+0  00000+0 0  9993", "line2": "2 54741   0.0311 247.4334 0002253  26.3801  18.7541  1.00270866 11139"}}, "geometry": {"type": "Point", "coordinates": [173.37860129939557, -0.0085647003711085]}}, {"type": "Feature", "properties": {"norad_id": 54742, "name": "GALAXY 36 (G-36)", "group": "intelsat", "lat": 0.02192387569698614, "lon": 177.50298907957716, "alt_km": 35787.405413744724, "timestamp": "2025-12-24T11:32:59.672166+00:00", "meta": {"OBJECT_NAME": "GALAXY 36 (G-36)", "OBJECT_ID": "2022-170B", "EPOCH": "2025-12-24T02:38:43.609344", "MEAN_MOTION": 1.00272435, "ECCENTRICITY": 3.58e-05, "INCLINATION": 0.0172, "RA_OF_ASC_NODE": 70.1558, "ARG_OF_PERICENTER": 278.5007, "MEAN_ANOMALY": 54.9201, "EPHEMERIS_TYPE": 0, "CLASSIFICATION_TYPE": "U", "NORAD_CAT_ID": 54742, "ELEMENT_SET_NO": 999, "REV_AT_EPOCH": 1101, "BSTAR": 0, "MEAN_MOTION_DOT": -1.64e-06, "MEAN_MOTION_DDOT": 0}, "tle": {"line1": "1 54742U 22170B   25358.11022696 -.00000164  00000+0  00000+0 0  9994", "line2": "2 54742   0.0172  70.1558 0000358 278.5007  54.9201  1.00272435 11013"}}, "geometry": {"type": "Point", "coordinates": [177.50298907957716, 0.02192387569698614]}}, {"type": "Feature", "properties": {"norad_id": 57493, "name": "GALAXY 37 (G-37)", "group": "intelsat", "lat": 0.0284500858860614, "lon": 139.47285169564995, "alt_km": 35792.4403833821, "timestamp": "2025-12-24T11:32:59.672178+00:00", "meta": {"OBJECT_NAME": "GALAXY 37 (G-37)", "OBJECT_ID": "2023-112A", "EPOCH": "2025-12-24T02:04:17.533056", "MEAN_MOTION": 1.00271551, "ECCENTRICITY": 0.0002029, "INCLINATION": 0.0164, "RA_OF_ASC_NODE": 4.2531, "ARG_OF_PERICENTER": 272.607, "MEAN_ANOMALY": 80.0704, "EPHEMERIS_TYPE": 0, "CLASSIFICATION_TYPE": "U", "NORAD_CAT_ID": 57493, "ELEMENT_SET_NO": 999, "REV_AT_EPOCH": 878, "BSTAR": 0, "MEAN_MOTION_DOT": 6.9e-07, "MEAN_MOTION_DDOT": 0}, "tle": {"line1": "1 57493U 23112A   25358.08631404  .00000069  00000+0  00000+0 0  9999", "line2": "2 57493   0.0164   4.2531 0002029 272.6070  80.0704  1.00271551  8787"}}, "geometry": {"type": "Point", "coordinates": [139.47285169564995, 0.0284500858860614]}}]}